TRANSPORTER-12 OBJECT AZ
1 62656U 25009AZ  26068.71026235  .00016057  00000+0  54903-3 0  9991
2 62656  97.3981 151.9913 0000987  45.3581 314.7740 15.30349724 63792
STARLINK-35600          
1 66510U 25263AB  26067.83128933  .00028253  00000+0  10327-2 0  9998
2 66510  43.0033 355.8857 0001377 246.7545 113.3161 15.27568302 18762
